ORBCOMM-X [-]           
1 21576U 91050C   23276.78147466  .00000615  00000+0  19998-3 0  9999
2 21576  98.4245 342.7680 0002496 261.7095  98.3812 14.42192595692376
ORBCOMM FM01 [-]        
1 23545U 95017A   23276.91527058  .00006573  00000+0  94851-3 0  9998
2 23545  69.9680 167.7490 0006169 209.6829 150.3969 14.76654211520277
ORBCOMM FM02 [-]        
1 23546U 95017B   23276.88190245  .00007244  00000+0  10562-2 0  9991
2 23546  69.9706 186.8505 0007490 196.8117 163.2783 14.76159700520226
ORBCOMM FM08 [-]        
1 25112U 97084A   23276.82955904  .00002584  00000+0  83509-3 0  9997
2 25112  45.0133 103.9895 0006948 350.2814   9.7901 14.41305670351459
ORBCOMM FM10 [-]        
1 25113U 97084B   23276.82569875  .00002298  00000+0  74831-3 0  9996
2 25113  45.0147 105.7208 0004548 318.8305  41.2201 14.41248688526602
ORBCOMM FM11 [+]        
1 25114U 97084C   23276.89629424  .00002655  00000+0  85967-3 0  9990
2 25114  45.0133 105.2872 0005300 319.7227  40.3229 14.41136162351586
ORBCOMM FM12 [-]        
1 25115U 97084D   23276.85240730  .00002445  00000+0  79553-3 0  9997
2 25115  45.0141 105.1369 0004304 320.7658  39.2879 14.41126120351377
ORBCOMM FM09 [-]        
1 25116U 97084E   23276.85910607  .00002554  00000+0  82923-3 0  9991
2 25116  45.0145 105.7350 0005528 302.7106  57.3210 14.41108356351589
